{"type":"FeatureCollection","features":[{"type":"Feature","properties":{"@id":"node/2382904318","addr:housenumber":777,"addr:street":"상무대로","name":"상무","name:en":"Sangmu","name:ja":"サンム(尚武)","name:ko":"상무","name:ko-Latn":"Sangmu","name:zh":"尚武","public_transport":"station","railway":"station","ref":113,"station":"subway","subway":"yes","wikidata":"Q1583312"},"geometry":{"coordinates":[126.8505007394999,35.147646409244814],"type":"Point"}},{"type":"Feature","properties":{"@id":"node/436826214","construction:railway":"stop","light_rail":"yes","name":"원광대병원","name:en":"Wonkwang Univ. Hospital","name:ja":"ウォングァンデビョンウォン","name:ko":"원광대병원","public_transport":"stop_position","railway":"construction","ref":209},"geometry":{"coordinates":[126.886429,35.1301274],"type":"Point"}},{"type":"Feature","properties":{"@id":"node/13509361972","construction:railway":"stop","light_rail":"yes","name":"응암공원","name:en":"Eungam Park","name:ja":"ンアムゴンウォン(鷹岩公園)","name:ko":"응암공원","public_transport":"stop_position","railway":"construction","ref":233},"geometry":{"coordinates":[126.8339188,35.2159223],"type":"Point"}},{"type":"Feature","properties":{"@id":"node/5190977743","name":"녹동","name:en":"Nokdong","name:ja":"ノクドン(鹿洞)","name:ko":"녹동","public_transport":"station","railway":"station","station":"subway","subway":"yes","wikidata":"Q623583"},"geometry":{"coordinates":[126.9339897,35.1068236],"type":"Point"}},{"type":"Feature","properties":{"@id":"node/6356359135","construction:railway":"station","light_rail":"yes","name":"마재","name:en":"Maejae","name:ja":"マジェ","name:ko":"마재","public_transport":"station","railway":"construction","ref":206,"station":"light_rail"},"geometry":{"coordinates":[126.8612452,35.1326526],"type":"Point"}},{"type":"Feature","properties":{"@id":"node/9252650059","addr:city":"광주광역시","addr:district":"서구","addr:housenumber":152,"addr:street":"경열로","name":"양동시장","name:en":"Yangdong Market","name:ja":"ヤンドンシジャン(良洞市場)","name:ko":"양동시장","name:ko-Latn":"Yangdongsijangyeok","name:zh":"良洞市场","public_transport":"station","railway":"station","ref":107,"station":"subway","subway":"yes","wheelchair":"yes","wikidata":"Q1583325","wikipedia":"ko:양동시장역"},"geometry":{"coordinates":[126.901769,35.1545129],"type":"Point"}},{"type":"Feature","properties":{"@id":"node/9252650061","addr:city":"광주광역시","addr:district":"북구","addr:housenumber":138,"addr:street":"금남로","internet_access":"wlan","internet_access:fee":"no","name":"금남로5가","name:en":"Geumnamro 5-ga","name:ja":"クムナムロ(錦南路)5街","name:ko":"금남로5가","name:ko-Latn":"Geumnamro5gayeok","name:zh":"锦南路5街","public_transport":"station","railway":"station","ref":106,"station":"subway","subway":"yes","wikidata":"Q1583245","wikipedia":"ko:금남로5가역"},"geometry":{"coordinates":[126.9100714,35.1537076],"type":"Point"}},{"type":"Feature","properties":{"@id":"node/9252650063","name":"금남로4가","name:en":"Geumnamno 4(sa)-ga","name:ja":"クムナムロ(錦南路)4街","name:ko":"금남로4가","name:ko-Latn":"Geumnamro4gayeok","name:zh":"锦南路4街","public_transport":"station","railway":"station","ref":105,"station":"subway","subway":"yes","wheelchair":"yes","wikidata":"Q1583235","wikipedia":"ko:금남로4가역"},"geometry":{"coordinates":[126.9145807,35.1507055],"type":"Point"}},{"type":"Feature","properties":{"@id":"node/9252650065","name":"문화전당","name:en":"Asia Culture Center","name:ja":"文化殿堂(旧道庁)[ムンファジョンダン]","name:ko":"문화전당","name:ko-Latn":"Munhwajeondangyeok","name:zh":"文化殿堂(旧道厅)","public_transport":"station","railway":"station","ref":104,"station":"subway","subway":"yes","wikidata":"Q1583261","wikipedia":"ko:문화전당역"},"geometry":{"coordinates":[126.9198143,35.1466782],"type":"Point"}},{"type":"Feature","properties":{"@id":"way/133325289","colour":"#009088","electrified":"rail","frequency":0,"gauge":1435,"layer":-5,"maxspeed":80,"name":"광주 도시철도 1호선","name:en":"Gwangju Metro Line 1","name:ja":"光州広域市都市鉄道公社1号線","name:ko":"광주 도시철도 1호선","name:ko-Hani":"光州 都市鐵道 1號線","name:zh":"光州都市鐵道1號線","name:zh-Hans":"光州都市铁道1号线","name:zh-Hant":"光州都市鐵道1號線","oneway":"yes","operator":"광주교통공사","operator:en":"Gwangju Transit Corporation","operator:ko":"광주교통공사","operator:type":"public","operator:wikidata":"Q14949087","railway":"subway","railway:atc":"yes","railway:ato":"sto","tunnel":"yes","usage":"main","voltage":1500,"wikidata":"Q626996","wikipedia":"ko:광주 도시철도 1호선"},"geometry":{"coordinates":[[126.7851163,35.1301587],[126.7861541,35.1307136],[126.7869021,35.1311223],[126.787612,35.1315728],[126.7879351,35.1318153],[126.7883599,35.1321773],[126.7887683,35.1325795],[126.7890382,35.1328709],[126.7893254,35.1333035],[126.789768,35.1341968],[126.7905491,35.1355175],[126.7913824,35.1371346],[126.7916837,35.1376262],[126.7924178,35.1387553],[126.7928302,35.1393815],[126.793461,35.1402063],[126.7946386,35.1415074],[126.7955034,35.1423396],[126.7961054,35.1428437],[126.7968311,35.1431538],[126.7976068,35.1433173],[126.7992447,35.1435327],[126.7995247,35.1435501],[126.7997393,35.1435578],[126.8001674,35.1435816],[126.8025149,35.1436781],[126.8034591,35.1437659],[126.8068923,35.144051],[126.8097569,35.1441519],[126.8114344,35.1441152],[126.8117005,35.1440716],[126.8153627,35.1435114],[126.8183641,35.1430798],[126.821446,35.1426122],[126.8245596,35.1420248],[126.8262003,35.1416418],[126.8285216,35.141033],[126.8307943,35.1403804],[126.8322976,35.1400836],[126.832962,35.1400624],[126.8337374,35.1401218],[126.8343002,35.140169],[126.8347852,35.1402586],[126.8360128,35.1405989],[126.8367695,35.1409174],[126.8390177,35.1420095],[126.8413624,35.1431752],[126.8434298,35.1442023],[126.8468115,35.1458404],[126.848662,35.1467166],[126.849621,35.1471755],[126.8504718,35.1475931],[126.8517788,35.1482515],[126.8531685,35.1489317],[126.8539126,35.1492687],[126.8543301,35.1493316],[126.8554136,35.149713],[126.8561846,35.1499173],[126.8587106,35.1503629],[126.8606463,35.1507356],[126.8645582,35.1512608],[126.8695762,35.1514261],[126.8717251,35.1514969],[126.8751823,35.1516326],[126.8768625,35.1518868],[126.8786467,35.1521755],[126.882181,35.1528972],[126.8841355,35.1531873],[126.8849099,35.1533022],[126.8859788,35.1534719],[126.886352,35.1534992],[126.8869895,35.1534059],[126.8873628,35.1532585],[126.887798,35.1529379],[126.8888048,35.1519988],[126.8899249,35.1509742],[126.8903411,35.1507567],[126.8910063,35.1505497],[126.8916415,35.1505181],[126.8923453,35.1506304],[126.8951176,35.1515181],[126.8955605,35.1516709],[126.8964094,35.1519637],[126.8991144,35.1528489],[126.900028,35.1531786],[126.9018197,35.1544713],[126.9021561,35.1547141],[126.9034882,35.1558783],[126.9043841,35.156377],[126.9050192,35.1565033],[126.9053625,35.1564963],[126.9057659,35.1563559],[126.9062723,35.1561805],[126.9072766,35.1555068],[126.9099927,35.1537362],[126.9108321,35.1531516],[126.9129339,35.1517214],[126.9145376,35.150688],[126.914967,35.1504113],[126.9163933,35.1494784],[126.9181209,35.148327],[126.9185407,35.1480217],[126.9187581,35.1478726],[126.9191729,35.1474785],[126.9194831,35.1471262],[126.919643,35.1469038],[126.9197904,35.1466707],[126.9199309,35.1464045],[126.9201936,35.1457148],[126.9202781,35.1453164],[126.9203047,35.1449586],[126.9203052,35.1444936],[126.9203036,35.1431972],[126.9203214,35.1428533],[126.9203996,35.1425073],[126.9206828,35.1419037],[126.9212751,35.1410755],[126.9222362,35.1400078],[126.9228161,35.1393636],[126.9229375,35.1392274],[126.9234819,35.138529],[126.9237995,35.1382052],[126.9255891,35.1364506],[126.9272113,35.1344291],[126.9280954,35.1331691],[126.928124,35.1331119],[126.9285632,35.132232],[126.9291348,35.1310197],[126.9292219,35.1307707],[126.9300655,35.1288548],[126.9311271,35.1264854],[126.9317451,35.1249129],[126.9321661,35.1236243],[126.9322772,35.1232843],[126.9329724,35.1213537],[126.9333158,35.1203076],[126.9336076,35.1185876],[126.9343893,35.1166879],[126.9347325,35.115889]],"type":"LineString"}},{"type":"Feature","properties":{"@id":"way/133325320","bridge":"yes","bridge:structure":"beam","colour":"#009088","electrified":"rail","frequency":0,"gauge":1435,"layer":1,"maxspeed":80,"name":"광주 도시철도 1호선","name:en":"Gwangju Metro Line 1","name:ja":"光州広域市都市鉄道公社1号線","name:ko":"광주 도시철도 1호선","name:ko-Hani":"光州 都市鐵道 1號線","name:zh":"光州都市鐵道1號線","name:zh-Hans":"光州都市铁道1号线","name:zh-Hant":"光州都市鐵道1號線","oneway":"yes","operator":"광주교통공사","operator:en":"Gwangju Transit Corporation","operator:ko":"광주교통공사","operator:type":"public","operator:wikidata":"Q14949087","railway":"subway","railway:atc":"yes","railway:ato":"sto","voltage":1500,"wikidata":"Q626996","wikipedia":"ko:광주 도시철도 1호선"},"geometry":{"coordinates":[[126.7704005,35.1248349],[126.7706105,35.1248651],[126.7707283,35.1248779],[126.7746473,35.1252269],[126.7753665,35.1253439],[126.7760059,35.1255119],[126.7767301,35.1257627],[126.7773845,35.1260685],[126.7818471,35.1284111],[126.7821041,35.1285555]],"type":"LineString"}},{"type":"Feature","properties":{"@id":"way/137187223","electrified":"rail","frequency":0,"gauge":1435,"maxspeed":80,"name":"광주 도시철도 1호선","name:ja":"光州都市鉄道1号線","name:ko":"광주 도시철도 1호선","name:ko-Hani":"光州 都市鐵道 1號線","name:zh":"光州都市鐵道1號線","name:zh-Hans":"光州都市铁道1号线","name:zh-Hant":"光州都市鐵道1號線","operator":"광주교통공사","operator:en":"Gwangju Transit Corporation","operator:ko":"광주교통공사","operator:type":"public","operator:wikidata":"Q14949087","railway":"subway","railway:atc":"yes","railway:ato":"sto","usage":"main","voltage":1500},"geometry":{"coordinates":[[126.9340426,35.1068152],[126.9340532,35.1071597],[126.9340624,35.1073192],[126.9340702,35.1074038],[126.9341154,35.1075741],[126.9342432,35.1078982],[126.9345162,35.1084071],[126.9346396,35.1086119],[126.9346735,35.1086784],[126.9349188,35.1091653],[126.9350031,35.1094141],[126.9351039,35.1097001],[126.9351243,35.1098054]],"type":"LineString"}},{"type":"Feature","properties":{"@id":"way/137187224","electrified":"rail","frequency":0,"gauge":1435,"layer":-5,"name":"광주 1호선","name:ko":"광주 1호선","oneway":"yes","operator":"광주교통공사","operator:en":"Gwangju Transit Corporation","operator:ko":"광주교통공사","operator:type":"public","operator:wikidata":"Q14949087","railway":"subway","usage":"main","voltage":1500},"geometry":{"coordinates":[[126.9353282,35.1135063],[126.935327,35.1135804]],"type":"LineString"}},{"type":"Feature","properties":{"@id":"way/489800937","colour":"#009088","electrified":"rail","frequency":0,"gauge":1435,"layer":-5,"maxspeed":80,"name":"광주 도시철도 1호선","name:en":"Gwangju Metro Line 1","name:ja":"光州都市鉄道1号線","name:ko":"광주 도시철도 1호선","name:ko-Hani":"光州 都市鐵道 1號線","name:zh":"光州都市鐵道1號線","name:zh-Hans":"光州都市铁道1号线","name:zh-Hant":"光州都市鐵道1號線","oneway":"yes","operator":"광주교통공사","operator:en":"Gwangju Transit Corporation","operator:ko":"광주교통공사","operator:type":"public","operator:wikidata":"Q14949087","railway":"subway","railway:atc":"yes","railway:ato":"sto","tunnel":"yes","usage":"main","voltage":1500,"wikidata":"Q626996","wikipedia":"ko:광주 도시철도 1호선"},"geometry":{"coordinates":[[126.9347933,35.1158957],[126.934736,35.1160398],[126.9339239,35.117983],[126.9337452,35.1185458],[126.9335403,35.1197536],[126.9334287,35.1204633],[126.9331122,35.121358],[126.9325489,35.1228764],[126.9323376,35.1234516],[126.9322702,35.1236547],[126.932204,35.1238552],[126.9315962,35.1256081],[126.9308978,35.1272933],[126.9299617,35.1292163],[126.9290403,35.1313235],[126.9281965,35.1331325],[126.9281009,35.1333036],[126.9278436,35.1337211],[126.9276242,35.1340651],[126.9271892,35.1347218],[126.9265606,35.1354691],[126.9253932,35.1367874],[126.9237789,35.138282],[126.9230331,35.1392129],[126.9228689,35.1394057],[126.9225451,35.1397483],[126.9221268,35.140236],[126.9212904,35.141239],[126.9209509,35.1417386],[126.9207775,35.1420326],[126.9205458,35.1424522],[126.9204909,35.1426972],[126.9204235,35.1430333],[126.92041,35.1437321],[126.9204279,35.1442644],[126.9204272,35.1448979],[126.9203773,35.1453241],[126.9203298,35.1455407],[126.920236,35.1458422],[126.9201088,35.1461805],[126.9200045,35.1464497],[126.919869,35.1467213],[126.9196736,35.1470591],[126.9194165,35.1473733],[126.9191199,35.1476475],[126.9188837,35.1478903],[126.9186745,35.1480523],[126.9146034,35.1507626],[126.9100288,35.1537794],[126.9075288,35.1554727],[126.9063513,35.156215],[126.9060636,35.1563721],[126.9055902,35.1565418],[126.9053006,35.1566137],[126.9050145,35.1566378],[126.9047901,35.1566169],[126.904615,35.1565919],[126.9042828,35.1564775],[126.9037326,35.156212],[126.9031814,35.1558069],[126.9017218,35.1545606],[126.900567,35.1536918],[126.9000731,35.1532999],[126.8997823,35.1531681],[126.8979261,35.1525196],[126.895531,35.1517511],[126.8941875,35.1513147],[126.8929,35.1509068],[126.8919559,35.1506305],[126.8915763,35.1506011],[126.8911324,35.1506393],[126.8907674,35.1507451],[126.8901722,35.150977],[126.8894427,35.151477],[126.8885297,35.1524042],[126.8878598,35.1530049],[126.8873611,35.1533371],[126.8871435,35.1534147],[126.886929,35.153474],[126.8865658,35.1535259],[126.8862019,35.1535603],[126.8841168,35.153257],[126.8837984,35.1532084],[126.8825018,35.1529998],[126.8821409,35.1529305],[126.8789601,35.1523197],[126.8768469,35.1519537],[126.8751715,35.15172],[126.872433,35.1515973],[126.8695561,35.1515347],[126.8667386,35.1514661],[126.8645726,35.1513468],[126.8639788,35.1513025],[126.8622338,35.1510551],[126.8600663,35.1506938],[126.8586931,35.1504421],[126.8570096,35.1501503],[126.8560376,35.1499757],[126.8548936,35.1496356],[126.8542407,35.1493653],[126.8538464,35.1493271],[126.8531231,35.1489914],[126.8522494,35.1485444],[126.8519854,35.1484223],[126.8517226,35.1482918],[126.8512529,35.1480535],[126.8488177,35.1468507],[126.8486397,35.1467699],[126.8478048,35.1463908],[126.8466547,35.145889],[126.8424454,35.1438035],[126.8412775,35.1431984],[126.8394047,35.1423097],[126.8370074,35.1411335],[126.8362124,35.1407662],[126.8347436,35.1403344],[126.8336633,35.1401855],[126.8329229,35.1401359],[126.83214,35.1401955],[126.8305377,35.140528],[126.828717,35.1410739],[126.8260041,35.1418283],[126.8231394,35.142404],[126.8200078,35.142935],[126.8128947,35.1439574],[126.8117209,35.144158],[126.8114138,35.1442105],[126.8093807,35.1442353],[126.8056906,35.1441062],[126.8007753,35.14367],[126.7995073,35.1436097],[126.7985609,35.1435647],[126.7971447,35.1434384],[126.7960547,35.1431085],[126.7953423,35.1425962],[126.7943295,35.1415013],[126.7930506,35.1400133],[126.7922745,35.1388302],[126.7915725,35.1376413],[126.7913549,35.137292],[126.7892154,35.1333403],[126.7889528,35.1329235],[126.7886375,35.1326214],[126.7878947,35.1318524],[126.7875518,35.1316358],[126.7868623,35.1312402],[126.7850965,35.1302155]],"type":"LineString"}},{"type":"Feature","properties":{"@id":"way/489800938","electrified":"rail","frequency":0,"gauge":1435,"maxspeed":80,"name":"광주 도시철도 1호선","name:en":"Gwangju Metro Line 1","name:ko":"광주 도시철도 1호선","name:ko-Hani":"光州 都市鐵道 1號線","name:zh":"光州都市鐵道1號線","name:zh-Hans":"光州都市铁道1号线","name:zh-Hant":"光州都市鐵道1號線","oneway":"yes","operator":"광주교통공사","operator:en":"Gwangju Transit Corporation","operator:ko":"광주교통공사","operator:type":"public","operator:wikidata":"Q14949087","railway":"subway","railway:atc":"yes","railway:ato":"sto","usage":"main","voltage":1500},"geometry":{"coordinates":[[126.9353055,35.1145147],[126.9352539,35.1147361],[126.9347933,35.1158957]],"type":"LineString"}},{"type":"Feature","properties":{"@id":"way/489800939","bridge":"yes","electrified":"rail","frequency":0,"gauge":1435,"layer":-5,"maxspeed":80,"name":"광주 도시철도 1호선","name:en":"Gwangju Metro Line 1","name:ko":"광주 도시철도 1호선","name:ko-Hani":"光州 都市鐵道 1號線","name:zh":"光州都市鐵道1號線","name:zh-Hans":"光州都市铁道1号线","name:zh-Hant":"光州都市鐵道1號線","oneway":"yes","operator":"광주교통공사","operator:en":"Gwangju Transit Corporation","operator:ko":"광주교통공사","operator:type":"public","operator:wikidata":"Q14949087","railway":"subway","railway:atc":"yes","railway:ato":"sto","usage":"main","voltage":1500},"geometry":{"coordinates":[[126.935327,35.1135804],[126.9353585,35.1141146],[126.9353055,35.1145147]],"type":"LineString"}},{"type":"Feature","properties":{"@id":"way/545403844","bridge":"yes","construction":"light_rail","construction:railway":"light_rail","electrified":"rail","frequency":0,"gauge":1700,"layer":1,"maxspeed":70,"name":"광주 도시철도 2호선","name:en":"Gwangju Metro Line 2","name:ja":"光州都市鉄道2号線","name:ko":"광주 도시철도 2호선","name:ko-Hani":"光州 都市鐵道 2號線","name:zh":"光州都市鐵道2號線","name:zh-Hans":"光州都市铁道2号线","name:zh-Hant":"光州都市鐵道2號線","railway":"construction","railway:cbtc":"RF","rubber_tires":"yes","voltage":750},"geometry":{"coordinates":[[126.8607341,35.2156407],[126.8569661,35.2172359]],"type":"LineString"}},{"type":"Feature","properties":{"@id":"way/705506750","construction:railway":"light_rail","electrified":"rail","frequency":0,"gauge":1700,"layer":-1,"maxspeed":70,"name":"광주 도시철도 2호선","name:en":"Gwangju Metro Line 2","name:ja":"光州都市鉄道2号線","name:ko":"광주 도시철도 2호선","name:ko-Hani":"光州 都市鐵道 2號線","name:zh":"光州都市鐵道2號線","name:zh-Hans":"光州都市铁道2号线","name:zh-Hant":"光州都市鐵道2號線","opening_date":2024,"railway":"construction","railway:cbtc":"RF","rubber_tires":"yes","tunnel":"yes","voltage":750},"geometry":{"coordinates":[[126.8569661,35.2172359],[126.8562486,35.2175001],[126.8557349,35.2176074],[126.855307,35.2176645],[126.8487828,35.2177055],[126.841972,35.2177419],[126.841214,35.2177441],[126.8387669,35.2177557],[126.8379354,35.2177309],[126.8373085,35.217632],[126.8367185,35.217445],[126.8360324,35.2171626],[126.8338429,35.2159602],[126.8328348,35.2154242],[126.8321762,35.215043],[126.8308615,35.2142667],[126.8279503,35.2121551],[126.8268095,35.2112265],[126.8260022,35.2104792],[126.8237787,35.2083447],[126.8225716,35.2071657],[126.8217938,35.2064095],[126.8206324,35.2052896],[126.8204053,35.2050497],[126.8202248,35.2048224],[126.8200716,35.204591],[126.8199165,35.2043151],[126.819761,35.2039797],[126.8196537,35.2036531],[126.8195866,35.2033047],[126.8195491,35.2029452],[126.8195357,35.2023928],[126.8195496,35.2022626],[126.8196107,35.2020007],[126.8196939,35.2017157],[126.8199111,35.2012336],[126.8206649,35.1996993],[126.8216748,35.197564],[126.8223711,35.1959627],[126.8232646,35.1940416],[126.823468,35.1935179],[126.8235758,35.1931301],[126.8236713,35.1927348],[126.8237576,35.1923496],[126.8238131,35.19171],[126.8238239,35.1911742],[126.8237667,35.1906894],[126.8236471,35.1899615],[126.823519,35.1895578],[126.8233604,35.1891338],[126.8229597,35.1882884],[126.8222892,35.1873063],[126.8213665,35.1863593],[126.8202936,35.1853992],[126.819556,35.1847109],[126.8191027,35.1842001],[126.8187576,35.1836878],[126.8182417,35.1826403],[126.8181226,35.1823782],[126.8180325,35.1821153],[126.8179118,35.1816966],[126.8178206,35.1812054],[126.8177589,35.1807364],[126.8177041,35.1801043],[126.8176802,35.1797972],[126.8177072,35.1796905],[126.8177601,35.1796025],[126.8178513,35.1795182],[126.8179911,35.1794578],[126.8181914,35.1794196],[126.8246978,35.1790547],[126.8249939,35.1790352],[126.8290057,35.1788139],[126.8300865,35.1787706],[126.8313669,35.178726],[126.8320001,35.1786841],[126.8325113,35.1785988],[126.833776,35.1783329]],"type":"LineString"}},{"type":"Feature","properties":{"@id":"way/727511346","construction":"light_rail","construction:railway":"light_rail","electrified":"rail","frequency":0,"gauge":1700,"layer":-4,"maxspeed":70,"name":"광주 도시철도 2호선","name:en":"Gwangju Metro Line 2","name:ja":"光州都市鉄道2号線","name:ko":"광주 도시철도 2호선","name:ko-Hani":"光州 都市鐵道 2號線","name:zh":"光州都市鐵道2號線","name:zh-Hans":"光州都市铁道2号线","name:zh-Hant":"光州都市鐵道2號線","opening_date":2023,"railway":"construction","railway:cbtc":"RF","rubber_tires":"yes","tunnel":"yes","voltage":750},"geometry":{"coordinates":[[126.8481027,35.1746046],[126.8482129,35.1744169],[126.8482861,35.1741805],[126.848262,35.1682273],[126.8483645,35.1659019],[126.8483531,35.1633104],[126.848199,35.162532],[126.8480333,35.1619138],[126.8479539,35.1615796],[126.8479013,35.1611906],[126.8479299,35.1609902],[126.8480131,35.1605889],[126.8481874,35.1598477],[126.8482283,35.1584128],[126.848241,35.1534181],[126.8482733,35.1528128],[126.8482733,35.1522064],[126.8481821,35.1512755],[126.8481307,35.1481703],[126.8481794,35.1478674],[126.8482652,35.1477095],[126.8484096,35.147586],[126.84894,35.1473502],[126.849079,35.1473009],[126.8491697,35.1472731],[126.8493891,35.1472604],[126.8495837,35.147306],[126.8499035,35.1474181],[126.8504157,35.1475997],[126.8510869,35.1478038],[126.8515563,35.1479924],[126.8520698,35.1482506],[126.8527471,35.148558],[126.8530047,35.1486109],[126.8532707,35.1486128],[126.8535284,35.1485469],[126.8548678,35.148257],[126.8553594,35.1481617],[126.8556393,35.1480915],[126.8559041,35.1480066],[126.8562259,35.1478433],[126.8564889,35.1476086],[126.8566586,35.1472713],[126.8568509,35.1463676],[126.8571646,35.1443501],[126.8572665,35.1439596],[126.8579353,35.1424353],[126.858429,35.1412526],[126.85853,35.1408972],[126.8585837,35.1405704],[126.8586477,35.1399054],[126.8587954,35.1392221],[126.8589466,35.1376859],[126.8589994,35.1365477],[126.8590873,35.1357098],[126.8590611,35.1348565],[126.8591943,35.1333935],[126.8593025,35.133082],[126.8595412,35.1328253],[126.859729,35.1327134],[126.8599284,35.132644],[126.8608246,35.1326279],[126.8652347,35.1326388],[126.8662752,35.1326474],[126.866659,35.1326934],[126.8671888,35.1327749],[126.8693005,35.1331301],[126.8699133,35.1333605],[126.8703881,35.1335952],[126.8713425,35.1341446],[126.8716916,35.1342994],[126.8718499,35.1343191],[126.8720001,35.1342884],[126.8721445,35.1341897],[126.8723568,35.1338782],[126.87313,35.1324325],[126.8743462,35.1298099],[126.8745562,35.1291971],[126.8746644,35.1287737],[126.8748419,35.1274969],[126.8749227,35.1272724],[126.875098,35.1270977],[126.8753687,35.1269306],[126.8755784,35.12685],[126.875778,35.1268142],[126.8759628,35.1267982],[126.8762675,35.1268147],[126.8766,35.1268992],[126.8785152,35.1276022],[126.8788691,35.1276823],[126.8792085,35.1277325],[126.8816447,35.1279842],[126.8822944,35.1280467],[126.8827,35.1281144],[126.8830808,35.1282039],[126.8832849,35.1282799],[126.8833274,35.128294],[126.8837623,35.1284857],[126.886429,35.1301274],[126.8869606,35.1304782],[126.8878064,35.1309169],[126.8885359,35.1311297],[126.8902351,35.13161],[126.8926062,35.1325873],[126.8937837,35.1332164],[126.894123,35.1333408],[126.8945975,35.1334874],[126.8962283,35.1339566],[126.8969738,35.1341786],[126.8983475,35.1345759],[126.8984978,35.1346106],[126.8987288,35.1346506],[126.8988917,35.1346477],[126.8990168,35.1346113],[126.8992273,35.1344971],[126.9006699,35.1335465],[126.9011609,35.1333058],[126.9015768,35.1332425],[126.9017654,35.1332379],[126.9021322,35.133267],[126.9024784,35.1332947],[126.9028342,35.1333204],[126.9031517,35.1333381],[126.9038844,35.1333984],[126.9050297,35.1335225],[126.905922,35.1335952],[126.9086143,35.1338066],[126.9098906,35.1339243],[126.9111294,35.1340691],[126.912816,35.1342134],[126.9147526,35.1343977],[126.9152741,35.1344586],[126.9156621,35.1345296],[126.916315,35.1346464],[126.9168455,35.1348748],[126.9170293,35.1349807],[126.9177235,35.1354562],[126.9181142,35.1357034],[126.9185541,35.1360255],[126.918711,35.1361337],[126.919431,35.1366926],[126.9197076,35.1369034],[126.9201286,35.1372102],[126.9204903,35.1374859],[126.9206456,35.1376102],[126.9209123,35.1378062],[126.9211463,35.1379791],[126.9215578,35.1382436],[126.9219592,35.138501],[126.9221111,35.1386025],[126.9223193,35.1387541],[126.9224901,35.1389062],[126.9226117,35.1390158],[126.9226637,35.1390718],[126.9227247,35.1391406],[126.9227899,35.1392397],[126.9229193,35.1394325],[126.922989,35.1395363],[126.9233922,35.1402198],[126.9235373,35.1404368],[126.9238205,35.1408975],[126.9241625,35.1414535],[126.9253836,35.1433873],[126.9260433,35.1444102],[126.9277666,35.1471439],[126.9281942,35.1478011],[126.9292211,35.1492446],[126.929371,35.1494576],[126.9302309,35.1506526],[126.9303489,35.1508413],[126.9304383,35.1510298],[126.9317914,35.1544522],[126.9318495,35.1546385],[126.9318804,35.1548435],[126.9318718,35.1551213],[126.9311528,35.158671],[126.9310218,35.1592748],[126.9308478,35.1599574],[126.930719,35.1603433],[126.9306091,35.1605765],[126.9304293,35.1608674],[126.9301946,35.1611748],[126.9298914,35.1614983],[126.9293995,35.1619203],[126.9290944,35.1621076],[126.9286417,35.1623331],[126.9283935,35.1624396],[126.9280714,35.1625458],[126.9268093,35.1628934],[126.9255983,35.1632384],[126.9242784,35.1636282],[126.923072,35.1639526],[126.9224447,35.1641088],[126.9212818,35.1643768],[126.9195878,35.164765],[126.9162919,35.1655094],[126.9132624,35.1663185],[126.9115323,35.1667939],[126.910817,35.1669829],[126.9105515,35.1671583],[126.9104184,35.1673134]],"type":"LineString"}},{"type":"Feature","properties":{"@id":"way/727511347","construction:railway":"light_rail","electrified":"rail","frequency":0,"gauge":1700,"layer":-5,"maxspeed":70,"name":"광주 도시철도 2호선","name:en":"Gwangju Metro Line 2","name:ja":"光州都市鉄道2号線","name:ko":"광주 도시철도 2호선","name:ko-Hani":"光州 都市鐵道 2號線","name:zh":"光州都市鐵道2號線","name:zh-Hans":"光州都市铁道2号线","name:zh-Hant":"光州都市鐵道2號線","opening_date":2024,"railway":"construction","railway:cbtc":"RF","rubber_tires":"yes","tunnel":"yes","voltage":750},"geometry":{"coordinates":[[126.89853,35.1872966],[126.8987295,35.1877259],[126.8988481,35.1879841],[126.8989723,35.1883006],[126.8990037,35.1884062],[126.8990172,35.188469],[126.8991466,35.1894671],[126.899243,35.1905635],[126.8992591,35.1907135],[126.8992552,35.1908548],[126.8992387,35.1910634],[126.8992222,35.1911736],[126.899203,35.1912381],[126.898893,35.1920377],[126.8988118,35.1922473],[126.8987756,35.1923497],[126.8986923,35.192603],[126.8986749,35.1927032],[126.8986716,35.1927889],[126.8986819,35.1929494],[126.898704,35.1930568],[126.8987352,35.1931675],[126.8987908,35.1932908],[126.8988769,35.1934352],[126.899033,35.1935988],[126.8993035,35.1938063],[126.8994417,35.1939382],[126.8995528,35.1940694],[126.8996525,35.1942191],[126.8997851,35.1944806],[126.8998498,35.1948234],[126.8998939,35.1954619],[126.8999931,35.1973868],[126.8999208,35.1983087],[126.8999206,35.1985301],[126.8999251,35.1988786],[126.89992,35.199177],[126.8999002,35.1994464],[126.8998811,35.1995642],[126.89985,35.1997027],[126.8998227,35.1998176],[126.8997807,35.1999933],[126.8994267,35.201013],[126.8988894,35.2023476],[126.8988101,35.2025376],[126.8986934,35.2026384],[126.8985593,35.202691],[126.8983566,35.2026904],[126.8981507,35.2026465],[126.8978346,35.2025715],[126.8970244,35.2023689],[126.8958233,35.2020486],[126.8931105,35.2013023],[126.8913829,35.2006127],[126.8855315,35.1982827],[126.8848319,35.1980214],[126.8839999,35.1978258],[126.8831649,35.1977237],[126.8823805,35.1977099],[126.8769786,35.1978776],[126.8767444,35.1979131],[126.8766382,35.1979738],[126.8765754,35.1980631],[126.8759809,35.1989551],[126.8751019,35.2004984],[126.8748384,35.2009246],[126.8740977,35.2021668],[126.8740197,35.2023154],[126.8739853,35.2023808],[126.8739062,35.2028781],[126.8738388,35.2034181],[126.8737805,35.2037104],[126.8736284,35.2047224],[126.8735691,35.2051377],[126.8734804,35.2058159],[126.8734505,35.2060744],[126.873435,35.2064274],[126.8734435,35.2064864],[126.8734619,35.2065869],[126.8739228,35.2091188],[126.8740934,35.2099652],[126.8742412,35.2108144],[126.8741512,35.2111154],[126.8739581,35.2113368],[126.8736522,35.2114714],[126.8731452,35.211645],[126.8723707,35.2119126],[126.8703626,35.212645],[126.8682584,35.2133419],[126.8662414,35.2139773],[126.8633425,35.2147894],[126.8619993,35.2151355],[126.861282,35.2154101],[126.8607341,35.2156407]],"type":"LineString"}},{"type":"Feature","properties":{"@id":"way/1002558100","bridge":"yes","bridge:structure":"beam","colour":"#009088","electrified":"rail","frequency":0,"gauge":1435,"layer":1,"maxspeed":80,"name":"광주 도시철도 1호선","name:en":"Gwangju Metro Line 1","name:ja":"光州広域市都市鉄道公社1号線","name:ko":"광주 도시철도 1호선","name:ko-Hani":"光州 都市鐵道 1號線","name:zh":"光州都市鐵道1號線","name:zh-Hans":"光州都市铁道1号线","name:zh-Hant":"光州都市鐵道1號線","operator":"광주교통공사","operator:en":"Gwangju Transit Corporation","operator:ko":"광주교통공사","operator:type":"public","operator:wikidata":"Q14949087","railway":"subway","railway:atc":"yes","railway:ato":"sto","voltage":1500,"wikidata":"Q626996","wikipedia":"ko:광주 도시철도 1호선"},"geometry":{"coordinates":[[126.7687948,35.1246804],[126.7696709,35.1247565],[126.7704005,35.1248349]],"type":"LineString"}},{"type":"Feature","properties":{"@id":"way/1002558104","electrified":"rail","frequency":0,"gauge":1435,"maxspeed":80,"name":"광주 도시철도 1호선","name:ko":"광주 도시철도 1호선","name:ko-Hani":"光州 都市鐵道 1號線","name:zh":"光州都市鐵道1號線","name:zh-Hans":"光州都市铁道1号线","name:zh-Hant":"光州都市鐵道1號線","oneway":"yes","operator":"광주교통공사","operator:en":"Gwangju Transit Corporation","operator:ko":"광주교통공사","operator:type":"public","operator:wikidata":"Q14949087","railway":"subway","railway:atc":"yes","railway:ato":"sto","usage":"main","voltage":1500},"geometry":{"coordinates":[[126.9351844,35.111186],[126.9351591,35.1105823],[126.9351451,35.1102441],[126.9351243,35.1098054]],"type":"LineString"}},{"type":"Feature","properties":{"@id":"way/1002558107","electrified":"rail","frequency":0,"gauge":1435,"name":"광주도시철도 1호선","name:en":"Gwangju Metro Line 1","name:ko":"광주 도시철도 1호선","oneway":"yes","operator":"광주교통공사","operator:en":"Gwangju Transit Corporation","operator:ko":"광주교통공사","operator:type":"public","operator:wikidata":"Q14949087","railway":"subway","usage":"main","voltage":1500},"geometry":{"coordinates":[[126.9352505,35.1112137],[126.9352733,35.1119639],[126.9353282,35.1135063]],"type":"LineString"}},{"type":"Feature","properties":{"@id":"way/1002558110","colour":"#009088","cutting":"yes","electrified":"rail","frequency":0,"gauge":1435,"maxspeed":80,"name":"광주 도시철도 1호선","name:en":"Gwangju Metro Line 1","name:ja":"光州広域市都市鉄道公社1号線","name:ko":"광주 도시철도 1호선","name:ko-Hani":"光州 都市鐵道 1號線","name:zh":"光州都市鐵道1號線","name:zh-Hans":"光州都市铁道1号线","name:zh-Hant":"光州都市鐵道1號線","oneway":"yes","operator":"광주교통공사","operator:en":"Gwangju Transit Corporation","operator:ko":"광주교통공사","operator:type":"public","operator:wikidata":"Q14949087","railway":"subway","railway:atc":"yes","railway:ato":"sto","usage":"main","voltage":1500,"wikidata":"Q626996","wikipedia":"ko:광주 도시철도 1호선"},"geometry":{"coordinates":[[126.7850965,35.1302155],[126.7823498,35.1287184],[126.7822294,35.1286578],[126.7820693,35.1285771]],"type":"LineString"}},{"type":"Feature","properties":{"@id":"way/1002558111","bridge:structure":"beam","colour":"#009088","cutting":"yes","electrified":"rail","frequency":0,"gauge":1435,"maxspeed":80,"name":"광주 도시철도 1호선","name:en":"Gwangju Metro Line 1","name:ja":"光州広域市都市鉄道公社1号線","name:ko":"광주 도시철도 1호선","name:ko-Hani":"光州 都市鐵道 1號線","name:zh":"光州都市鐵道1號線","name:zh-Hans":"光州都市铁道1号线","name:zh-Hant":"光州都市鐵道1號線","oneway":"yes","operator":"광주교통공사","operator:en":"Gwangju Transit Corporation","operator:ko":"광주교통공사","operator:type":"public","operator:wikidata":"Q14949087","railway":"subway","railway:atc":"yes","railway:ato":"sto","voltage":1500,"wikidata":"Q626996","wikipedia":"ko:광주 도시철도 1호선"},"geometry":{"coordinates":[[126.7821041,35.1285555],[126.7850518,35.1301243],[126.7851163,35.1301587]],"type":"LineString"}},{"type":"Feature","properties":{"@id":"way/1002558112","bridge":"yes","colour":"#009088","electrified":"rail","frequency":0,"gauge":1435,"layer":1,"maxspeed":80,"name":"광주 도시철도 1호선","name:en":"Gwangju Metro Line 1","name:ja":"光州広域市都市鉄道公社1号線","name:ko":"광주 도시철도 1호선","name:ko-Hani":"光州 都市鐵道 1號線","name:zh":"光州都市鐵道1號線","name:zh-Hans":"光州都市铁道1号线","name:zh-Hant":"光州都市鐵道1號線","oneway":"yes","operator":"광주교통공사","operator:en":"Gwangju Transit Corporation","operator:ko":"광주교통공사","operator:type":"public","operator:wikidata":"Q14949087","railway":"subway","railway:atc":"yes","railway:ato":"sto","usage":"main","voltage":1500,"wikidata":"Q626996","wikipedia":"ko:광주 도시철도 1호선"},"geometry":{"coordinates":[[126.7820693,35.1285771],[126.781584,35.1283249],[126.7798619,35.1274093],[126.7784586,35.1266862],[126.7770166,35.1259281],[126.7764888,35.125714],[126.7756541,35.1254542],[126.7752836,35.125353],[126.7743598,35.1252409],[126.7713732,35.1249868],[126.7704162,35.1248955],[126.7697349,35.1248261],[126.7687769,35.1247461]],"type":"LineString"}},{"type":"Feature","properties":{"@id":"way/1002558115","colour":"#009088","electrified":"rail","frequency":0,"gauge":1435,"maxspeed":80,"name":"광주 도시철도 1호선","name:en":"Gwangju Metro Line 1","name:ja":"光州広域市都市鉄道公社1号線","name:ko":"광주 도시철도 1호선","name:ko-Hani":"光州 都市鐵道 1號線","name:zh":"光州都市鐵道1號線","name:zh-Hans":"光州都市铁道1号线","name:zh-Hant":"光州都市鐵道1號線","oneway":"yes","operator":"광주교통공사","operator:en":"Gwangju Transit Corporation","operator:ko":"광주교통공사","operator:type":"public","operator:wikidata":"Q14949087","railway":"subway","railway:atc":"yes","railway:ato":"sto","usage":"main","voltage":1500,"wikidata":"Q626996","wikipedia":"ko:광주 도시철도 1호선"},"geometry":{"coordinates":[[126.9347325,35.115889],[126.9348806,35.1155766],[126.9351662,35.1148361],[126.9352249,35.1146545],[126.9352632,35.1145188]],"type":"LineString"}},{"type":"Feature","properties":{"@id":"way/1002558116","bridge":"yes","colour":"#009088","electrified":"rail","frequency":0,"gauge":1435,"layer":1,"maxspeed":80,"name":"광주 도시철도 1호선","name:en":"Gwangju Metro Line 1","name:ja":"光州広域市都市鉄道公社1号線","name:ko":"광주 도시철도 1호선","name:ko-Hani":"光州 都市鐵道 1號線","name:zh":"光州都市鐵道1號線","name:zh-Hans":"光州都市铁道1号线","name:zh-Hant":"光州都市鐵道1號線","oneway":"yes","operator":"광주교통공사","operator:en":"Gwangju Transit Corporation","operator:ko":"광주교통공사","operator:type":"public","operator:wikidata":"Q14949087","railway":"subway","railway:atc":"yes","railway:ato":"sto","usage":"main","voltage":1500,"wikidata":"Q626996","wikipedia":"ko:광주 도시철도 1호선"},"geometry":{"coordinates":[[126.9352632,35.1145188],[126.9353091,35.1140534],[126.935288,35.1135759]],"type":"LineString"}},{"type":"Feature","properties":{"@id":"way/1002558117","colour":"#009088","electrified":"rail","frequency":0,"gauge":1435,"maxspeed":80,"name":"광주 도시철도 1호선","name:en":"Gwangju Metro Line 1","name:ja":"光州広域市都市鉄道公社1号線","name:ko":"광주 도시철도 1호선","name:ko-Hani":"光州 都市鐵道 1號線","name:zh":"光州都市鐵道1號線","name:zh-Hans":"光州都市铁道1号线","name:zh-Hant":"光州都市鐵道1號線","oneway":"yes","operator":"광주교통공사","operator:en":"Gwangju Transit Corporation","operator:ko":"광주교통공사","operator:type":"public","operator:wikidata":"Q14949087","railway":"subway","railway:atc":"yes","railway:ato":"sto","usage":"main","voltage":1500,"wikidata":"Q626996","wikipedia":"ko:광주 도시철도 1호선"},"geometry":{"coordinates":[[126.935288,35.1135759],[126.9352835,35.1134977],[126.935285,35.1132159],[126.935255,35.1126129],[126.9352063,35.1115266],[126.9351844,35.111186]],"type":"LineString"}},{"type":"Feature","properties":{"@id":"way/1004877768","electrified":"rail","frequency":0,"gauge":1435,"maxspeed":80,"name":"광주 도시철도 1호선","name:ko":"광주 도시철도 1호선","name:ko-Hani":"光州 都市鐵道 1號線","name:zh":"光州都市鐵道1號線","name:zh-Hans":"光州都市铁道1号线","name:zh-Hant":"光州都市鐵道1號線","oneway":"yes","operator":"광주교통공사","operator:en":"Gwangju Transit Corporation","operator:ko":"광주교통공사","operator:type":"public","operator:wikidata":"Q14949087","railway":"subway","railway:atc":"yes","railway:ato":"sto","usage":"main","voltage":1500},"geometry":{"coordinates":[[126.9351243,35.1098054],[126.9351689,35.110059],[126.9351992,35.1101916],[126.9352118,35.1105826],[126.9352386,35.1110694],[126.9352505,35.1112137]],"type":"LineString"}},{"type":"Feature","properties":{"@id":"way/1017992592","construction:railway":"light_rail","electrified":"rail","frequency":0,"gauge":1700,"maxspeed":70,"name":"광주 도시철도 2호선","name:en":"Gwangju Metro Line 2","name:ja":"光州都市鉄道2号線","name:ko":"광주 도시철도 2호선","name:ko-Hani":"光州 都市鐵道 2號線","name:zh":"光州都市鐵道2號線","name:zh-Hans":"光州都市铁道2号线","name:zh-Hant":"光州都市鐵道2號線","opening_date":2024,"railway":"construction","railway:cbtc":"RF","rubber_tires":"yes","tunnel":"yes","voltage":750},"geometry":{"coordinates":[[126.9104184,35.1673134],[126.9103128,35.1675004],[126.9102779,35.1676922],[126.9103106,35.1678663],[126.911306,35.1704998],[126.9115413,35.1711145],[126.9115488,35.1711326],[126.912399,35.1731229],[126.9125421,35.1734681],[126.9126146,35.1736316],[126.9126683,35.1737727],[126.9127311,35.1739992],[126.9127227,35.1741561],[126.9126841,35.1744015],[126.9124884,35.1754808],[126.9124571,35.1756857],[126.9124422,35.1758017],[126.912436,35.1758404],[126.9124291,35.1759002],[126.9122765,35.1769054],[126.9120168,35.1789255],[126.9119545,35.1799093],[126.9119853,35.1804982],[126.9118834,35.1806823],[126.9115025,35.1811022],[126.9113215,35.1812916],[126.911155,35.1814686],[126.911083,35.1815329],[126.910982,35.1816051],[126.9108303,35.1816898],[126.9106117,35.1818016],[126.9098993,35.1821235],[126.9090893,35.1823824],[126.908379,35.1825672],[126.9075853,35.1827178],[126.9072946,35.1828385],[126.9070882,35.1830248],[126.9066907,35.1836024],[126.906283,35.1840978],[126.9060577,35.1841943],[126.903186,35.1843576],[126.9014418,35.1844951],[126.900707,35.1845365],[126.8993503,35.1846262],[126.8989536,35.1846603],[126.8987639,35.1847425],[126.8986217,35.1850581],[126.8985367,35.1854025],[126.8985169,35.1854829],[126.8983766,35.1860515],[126.89834,35.1862],[126.8983549,35.1866899],[126.89853,35.1872966]],"type":"LineString"}},{"type":"Feature","properties":{"@id":"way/1434887138","construction:railway":"light_rail","electrified":"rail","frequency":0,"gauge":1700,"layer":-1,"maxspeed":70,"name":"광주 도시철도 2호선","name:en":"Gwangju Metro Line 2","name:ja":"光州都市鉄道2号線","name:ko":"광주 도시철도 2호선","name:ko-Hani":"光州 都市鐵道 2號線","name:zh":"光州都市鐵道2號線","name:zh-Hans":"光州都市铁道2号线","name:zh-Hant":"光州都市鐵道2號線","opening_date":2024,"railway":"construction","railway:cbtc":"RF","rubber_tires":"yes","tunnel":"yes","voltage":750},"geometry":{"coordinates":[[126.833776,35.1783329],[126.834489,35.1781506],[126.8348394,35.178073],[126.8352568,35.1779797],[126.8361592,35.1777692],[126.836282,35.1777393],[126.83683,35.1776057],[126.8371664,35.1775324],[126.8447231,35.1757591],[126.8473254,35.1751749],[126.8476172,35.17507],[126.84784,35.1749403],[126.8479859,35.1747761],[126.8481027,35.1746046]],"type":"LineString"}},{"type":"Feature","properties":{"@id":"way/1472335935","construction:railway":"light_rail","electrified":"rail","frequency":0,"gauge":1700,"layer":-5,"maxspeed":70,"name":"광주 도시철도 2호선","name:en":"Gwangju Metro Line 2","name:ja":"光州都市鉄道2号線","name:ko":"광주 도시철도 2호선","name:ko-Hani":"光州 都市鐵道 2號線","name:zh":"光州都市鐵道2號線","name:zh-Hans":"光州都市铁道2号线","name:zh-Hant":"光州都市鐵道2號線","opening_date":2024,"railway":"construction","railway:cbtc":"RF","rubber_tires":"yes","tunnel":"yes","voltage":750},"geometry":{"coordinates":[[126.8985965,35.1926088],[126.8985791,35.192709],[126.8985758,35.1927947],[126.8985861,35.1929552],[126.8986082,35.1930626],[126.8986394,35.1931733],[126.898695,35.1932966],[126.8987811,35.193441],[126.8989372,35.1936046],[126.8992292,35.1938582],[126.8993486,35.1939725],[126.8994463,35.1941015],[126.8995407,35.1942447],[126.8996564,35.1944981],[126.8997433,35.1948227]],"type":"LineString"}},{"type":"Feature","properties":{"@id":"way/1472335936","construction:railway":"light_rail","electrified":"rail","frequency":0,"gauge":1700,"layer":-5,"maxspeed":70,"name":"광주 도시철도 2호선","name:en":"Gwangju Metro Line 2","name:ja":"光州都市鉄道2号線","name:ko":"광주 도시철도 2호선","name:ko-Hani":"光州 都市鐵道 2號線","name:zh":"光州都市鐵道2號線","name:zh-Hans":"光州都市铁道2号线","name:zh-Hant":"光州都市鐵道2號線","opening_date":2024,"railway":"construction","railway:cbtc":"RF","rubber_tires":"yes","tunnel":"yes","voltage":750},"geometry":{"coordinates":[[126.8984476,35.187298],[126.8986498,35.1876704],[126.8987684,35.1879286],[126.8988926,35.1882451],[126.898924,35.1883507],[126.8989375,35.1884135],[126.8990669,35.1894116],[126.8991633,35.190508],[126.8991794,35.190658],[126.8991755,35.1907993],[126.899159,35.1910079],[126.8991425,35.1911181],[126.8991233,35.1911826],[126.8988133,35.1919822],[126.8987321,35.1921918],[126.8986959,35.1922942],[126.8985965,35.1926088]],"type":"LineString"}},{"type":"Feature","properties":{"@id":"way/1472335937","construction:railway":"light_rail","electrified":"rail","frequency":0,"gauge":1700,"layer":-1,"maxspeed":70,"name":"광주 도시철도 2호선","name:en":"Gwangju Metro Line 2","name:ja":"光州都市鉄道2号線","name:ko":"광주 도시철도 2호선","name:ko-Hani":"光州 都市鐵道 2號線","name:zh":"光州都市鐵道2號線","name:zh-Hans":"光州都市铁道2号线","name:zh-Hant":"光州都市鐵道2號線","opening_date":2024,"railway":"construction","railway:cbtc":"RF","rubber_tires":"yes","tunnel":"yes","voltage":750},"geometry":{"coordinates":[[126.8568918,35.2171651],[126.8562333,35.2174249],[126.8557411,35.217541],[126.8553132,35.2175981],[126.848789,35.2176391],[126.8419782,35.2176755],[126.8412202,35.2176777],[126.8387731,35.2176893],[126.8379496,35.2176732],[126.8373388,35.2175787],[126.8367944,35.2174071],[126.8361083,35.2171247],[126.8339188,35.2159223],[126.8329107,35.2153863],[126.8322521,35.2150051],[126.8309374,35.2142288],[126.8279993,35.2121281],[126.8268506,35.2112039],[126.8260405,35.2104478],[126.8238304,35.2083177],[126.822618,35.2071365],[126.8218428,35.2063847],[126.8206841,35.2052517],[126.8204625,35.2050117],[126.8202846,35.2047932],[126.8201395,35.2045662],[126.8199817,35.2042881],[126.8198369,35.2039418],[126.8197296,35.2036152],[126.8196679,35.2032908],[126.819625,35.2029073],[126.8196062,35.2023899],[126.8196228,35.2022685],[126.8196786,35.2020087],[126.8197698,35.2017282],[126.8199763,35.201257],[126.8207408,35.1997161],[126.8217507,35.1975261],[126.822447,35.1959248],[126.8233405,35.1940036],[126.8235439,35.1934799],[126.8236517,35.1930921],[126.8237472,35.1926968],[126.8238335,35.1923116],[126.823889,35.191672],[126.8238998,35.1911362],[126.8238426,35.1906514],[126.823723,35.1899235],[126.8235949,35.1895198],[126.8234363,35.1890958],[126.8230356,35.1882504],[126.8223651,35.1872683],[126.8214424,35.1863213],[126.8203534,35.1853525],[126.8196212,35.1846795],[126.8191679,35.1841752],[126.8188254,35.1836674],[126.8182921,35.1826231],[126.8181789,35.1823628],[126.8180869,35.1821036],[126.8179716,35.1816915],[126.8178804,35.181196],[126.8178187,35.1807379],[126.8177693,35.180108],[126.817748,35.1797943],[126.817775,35.1797118],[126.8178172,35.1796369],[126.8178977,35.1795614],[126.8180026,35.1795119],[126.8182029,35.1794693],[126.8246986,35.1791044],[126.8250028,35.1790827],[126.8290091,35.1788614],[126.8300927,35.1788159],[126.8313382,35.178767],[126.8320062,35.1787206],[126.8325282,35.1786397],[126.8337955,35.1783782]],"type":"LineString"}},{"type":"Feature","properties":{"@id":"way/1472335938","construction:railway":"light_rail","electrified":"rail","frequency":0,"gauge":1700,"layer":-5,"maxspeed":70,"name":"광주 도시철도 2호선","name:en":"Gwangju Metro Line 2","name:ja":"光州都市鉄道2号線","name:ko":"광주 도시철도 2호선","name:ko-Hani":"光州 都市鐵道 2號線","name:zh":"光州都市鐵道2號線","name:zh-Hans":"光州都市铁道2号线","name:zh-Hant":"光州都市鐵道2號線","opening_date":2024,"railway":"construction","railway:cbtc":"RF","rubber_tires":"yes","tunnel":"yes","voltage":750},"geometry":{"coordinates":[[126.8997433,35.1948227],[126.8998142,35.1954064],[126.8999134,35.1973313],[126.8998411,35.1982532],[126.8998409,35.1984746],[126.8998294,35.1988713],[126.8998189,35.1990732],[126.8998205,35.1993909],[126.8998014,35.1995087],[126.8997703,35.1996472],[126.899743,35.1997621],[126.899701,35.1999378],[126.899347,35.2009575],[126.8988405,35.2023337],[126.8987651,35.2025231],[126.898668,35.2026121],[126.8985566,35.2026571],[126.8983635,35.2026604],[126.8981609,35.2026184],[126.8978407,35.2025423],[126.8970359,35.2023353],[126.8958389,35.202015],[126.8931462,35.2012512],[126.8914267,35.2005572],[126.8855591,35.1982228],[126.8848487,35.1979571],[126.8840167,35.1977615],[126.8831818,35.1976595],[126.8823974,35.1976457],[126.8768989,35.1978221],[126.8766647,35.1978576],[126.8765585,35.1979183],[126.8764957,35.1980076],[126.8759012,35.1988996],[126.8750222,35.2004429],[126.8747587,35.2008691],[126.874018,35.2021113],[126.87394,35.2022599],[126.8739056,35.2023253],[126.8738265,35.2028226],[126.8737591,35.2033626],[126.8737008,35.2036549],[126.8735487,35.2046669],[126.8734894,35.2050822],[126.8734007,35.2057604],[126.8733708,35.2060189],[126.8733553,35.2063719],[126.8733665,35.2064528],[126.8733822,35.2065314],[126.8738431,35.2090633],[126.8740405,35.2099733],[126.8741857,35.210818],[126.8741083,35.2110957],[126.8739232,35.2113017],[126.8736343,35.2114269],[126.8731245,35.2116049],[126.872342,35.2118779],[126.8703465,35.2126111],[126.868241,35.2133068],[126.8662153,35.2139262],[126.8633138,35.2147273],[126.8619196,35.21508],[126.8612023,35.2153546],[126.8606544,35.2155852]],"type":"LineString"}},{"type":"Feature","properties":{"@id":"way/1472335939","construction":"light_rail","construction:railway":"light_rail","electrified":"rail","frequency":0,"gauge":1700,"layer":-4,"maxspeed":70,"name":"광주 도시철도 2호선","name:en":"Gwangju Metro Line 2","name:ja":"光州都市鉄道2号線","name:ko":"광주 도시철도 2호선","name:ko-Hani":"光州 都市鐵道 2號線","name:zh":"光州都市鐵道2號線","name:zh-Hans":"光州都市铁道2号线","name:zh-Hant":"光州都市鐵道2號線","opening_date":2023,"railway":"construction","railway:cbtc":"RF","rubber_tires":"yes","tunnel":"yes","voltage":750},"geometry":{"coordinates":[[126.8481625,35.1746478],[126.8482807,35.1744359],[126.8483486,35.1741886],[126.848354,35.1682375],[126.8484208,35.1659019],[126.8484156,35.1633097],[126.8482749,35.1625642],[126.8481092,35.161946],[126.8480298,35.1616118],[126.8479691,35.1611855],[126.8479897,35.1609983],[126.8480702,35.1606035],[126.8482446,35.1598601],[126.8482854,35.1584165],[126.8483027,35.1534203],[126.848335,35.1528172],[126.8483331,35.1522123],[126.8482464,35.1512667],[126.8481985,35.1481696],[126.8482411,35.1478718],[126.8483135,35.1477424],[126.8484506,35.147616],[126.8489636,35.1473889],[126.8491026,35.1473418],[126.8492751,35.1473185],[126.8494408,35.1473299],[126.8498822,35.1474566],[126.8504005,35.1476345],[126.8510735,35.1478455],[126.8515296,35.1480266],[126.852041,35.1482828],[126.852713,35.1485967],[126.8529913,35.1486569],[126.8532769,35.1486582],[126.8535479,35.1485835],[126.8548766,35.1482914],[126.8553789,35.1481982],[126.8556535,35.1481303],[126.8559559,35.1480344],[126.856283,35.1478733],[126.8565318,35.1476481],[126.856705,35.1472837],[126.8569027,35.1463735],[126.8572351,35.1443471],[126.8573344,35.1439786],[126.8579898,35.1424522],[126.8584781,35.1412562],[126.858573,35.1409082],[126.8586346,35.1405748],[126.8586994,35.1399113],[126.8588417,35.1392236],[126.8589984,35.1376874],[126.8590531,35.1365367],[126.8591335,35.1357142],[126.8591148,35.1348565],[126.8592407,35.1334037],[126.8593481,35.1331083],[126.8595788,35.1328472],[126.8597504,35.1327485],[126.8599372,35.1326828],[126.8608254,35.1326776],[126.8652302,35.1326864],[126.8662733,35.1326906],[126.8666517,35.1327387],[126.8671762,35.1328312],[126.8692932,35.1331798],[126.8698838,35.1333978],[126.8703559,35.1336303],[126.8713044,35.1341735],[126.8716729,35.1343586],[126.8718553,35.1343805],[126.8720296,35.1343432],[126.8721909,35.1342241],[126.8724078,35.133898],[126.8732032,35.1324406],[126.8744033,35.1298289],[126.8746018,35.1292058],[126.8747054,35.1287708],[126.8749178,35.1275291],[126.8749946,35.1273057],[126.8751536,35.127146],[126.8754237,35.1269755],[126.8756071,35.1269122],[126.8757874,35.1268783],[126.8759622,35.12686],[126.8762495,35.1268689],[126.8765713,35.1269512],[126.8784932,35.1276355],[126.8788565,35.1277167],[126.8791878,35.1277625],[126.8816428,35.1280208],[126.8822764,35.1280876],[126.8826874,35.1281532],[126.8830628,35.1282427],[126.8832723,35.1283099],[126.8833094,35.1283218],[126.8837309,35.1285113],[126.8863976,35.1301706],[126.8869239,35.1305082],[126.8877849,35.1309432],[126.8885252,35.131167],[126.8902117,35.1316356],[126.8925801,35.1326239],[126.8937604,35.1332529],[126.8941015,35.1333803],[126.8945715,35.1335195],[126.8962103,35.1339931],[126.8969558,35.1342174],[126.8983322,35.1346191],[126.8984798,35.1346516],[126.8987189,35.134696],[126.8988979,35.1346975],[126.8990578,35.1346478],[126.8992629,35.1345336],[126.9006975,35.1335853],[126.9011858,35.1333928],[126.9015561,35.1333449],[126.9017447,35.1333403],[126.9021115,35.1333694],[126.9024577,35.1333971],[126.9028135,35.1334228],[126.903131,35.1334405],[126.9038637,35.1335008],[126.9050224,35.1335656],[126.9059282,35.133634],[126.908607,35.1338487],[126.9098887,35.1339653],[126.9111248,35.1341035],[126.9128115,35.13425],[126.9147481,35.1344387],[126.9152588,35.1345017],[126.9156575,35.1345706],[126.916297,35.1346785],[126.9168194,35.1349048],[126.916998,35.1350063],[126.9176813,35.1354708],[126.9180828,35.135751],[126.9185281,35.1360687],[126.9186769,35.1361725],[126.9193942,35.136727],[126.9196682,35.1369422],[126.9200865,35.1372534],[126.9204429,35.1375246],[126.9205982,35.1376467],[126.9208648,35.1378362],[126.9211042,35.1380135],[126.9215184,35.1382802],[126.9219224,35.138542],[126.9220743,35.1386435],[126.9222825,35.1387951],[126.9224533,35.1389472],[126.9225857,35.1390831],[126.9226377,35.1391523],[126.922704,35.139243],[126.9227692,35.1393421],[126.9228986,35.1395349],[126.9229683,35.1396387],[126.9233448,35.140241],[126.9234844,35.140458],[126.9237838,35.1409165],[126.9241231,35.1414638],[126.9253281,35.143402],[126.9259878,35.1444336],[126.9277164,35.1471629],[126.9281414,35.1478135],[126.9291602,35.1492746],[126.9293074,35.149481],[126.9301584,35.1506636],[126.9302872,35.1508522],[126.9303827,35.1510488],[126.9317439,35.1544647],[126.9317886,35.1546466],[126.9318187,35.1548479],[126.9318243,35.1551228],[126.9310893,35.1586549],[126.9309636,35.1592675],[126.9308022,35.1599464],[126.9306654,35.1603236],[126.9305482,35.1605561],[126.9303703,35.1608411],[126.9301525,35.1611456],[126.9298466,35.1614691],[126.9293574,35.1618845],[126.9290523,35.1620784],[126.928621,35.1623016],[126.9283614,35.1624111],[126.9280688,35.1625043],[126.9267994,35.1628576],[126.9255776,35.1632026],[126.924252,35.1635944],[126.9230667,35.1639131],[126.9224321,35.164073],[126.9212692,35.1643432],[126.9195752,35.1647205],[126.9162766,35.1654693],[126.9132096,35.1662805],[126.9115224,35.1667472],[126.9107875,35.16695],[126.9105233,35.1671265],[126.9103843,35.1672897]],"type":"LineString"}},{"type":"Feature","properties":{"@id":"way/1472335940","construction:railway":"light_rail","electrified":"rail","frequency":0,"gauge":1700,"maxspeed":70,"name":"광주 도시철도 2호선","name:en":"Gwangju Metro Line 2","name:ja":"光州都市鉄道2号線","name:ko":"광주 도시철도 2호선","name:ko-Hani":"光州 都市鐵道 2號線","name:zh":"光州都市鐵道2號線","name:zh-Hans":"光州都市铁道2号线","name:zh-Hant":"光州都市鐵道2號線","opening_date":2024,"railway":"construction","railway:cbtc":"RF","rubber_tires":"yes","tunnel":"yes","voltage":750},"geometry":{"coordinates":[[126.9103843,35.1672897],[126.9102752,35.1674817],[126.9102377,35.1676889],[126.9102698,35.1678765],[126.9112371,35.1704794],[126.9114724,35.1710941],[126.9114799,35.1711122],[126.9123166,35.1730454],[126.9124678,35.1734082],[126.9125349,35.1735717],[126.9125913,35.1737347],[126.9126541,35.1739458],[126.9126538,35.1741049],[126.9126313,35.1743569],[126.9124194,35.1754604],[126.9123881,35.1756653],[126.9123732,35.1757813],[126.912367,35.17582],[126.9123601,35.1758798],[126.9122397,35.1768586],[126.9119479,35.1789051],[126.9118909,35.1798735],[126.9119164,35.1804778],[126.9118145,35.1806619],[126.9114336,35.1810818],[126.9112526,35.1812712],[126.9110861,35.1814482],[126.9110141,35.1815125],[126.9109131,35.1815847],[126.9107614,35.1816694],[126.9105428,35.1817812],[126.9098304,35.1821031],[126.9090204,35.182362],[126.9083101,35.1825468],[126.9075164,35.1826974],[126.9072257,35.1828181],[126.9070193,35.1830044],[126.9066218,35.183582],[126.9062141,35.1840774],[126.9060263,35.1841563],[126.9031654,35.1842802],[126.9014346,35.1844352],[126.9007051,35.1844853],[126.8993484,35.1845707],[126.8989348,35.1846055],[126.8987057,35.1847111],[126.8985528,35.1850377],[126.8984678,35.1853821],[126.898448,35.1854625],[126.8983077,35.1860311],[126.8982711,35.1861796],[126.8982699,35.186676],[126.8984476,35.187298]],"type":"LineString"}},{"type":"Feature","properties":{"@id":"way/1472335941","bridge":"yes","construction":"light_rail","construction:railway":"light_rail","electrified":"rail","frequency":0,"gauge":1700,"layer":1,"maxspeed":70,"name":"광주 도시철도 2호선","name:en":"Gwangju Metro Line 2","name:ja":"光州都市鉄道2号線","name:ko":"광주 도시철도 2호선","name:ko-Hani":"光州 都市鐵道 2號線","name:zh":"光州都市鐵道2號線","name:zh-Hans":"光州都市铁道2号线","name:zh-Hant":"光州都市鐵道2號線","railway":"construction","railway:cbtc":"RF","rubber_tires":"yes","voltage":750},"geometry":{"coordinates":[[126.8606544,35.2155852],[126.8568918,35.2171651]],"type":"LineString"}},{"type":"Feature","properties":{"@id":"way/1472335942","construction:railway":"light_rail","electrified":"rail","frequency":0,"gauge":1700,"layer":-1,"maxspeed":70,"name":"광주 도시철도 2호선","name:en":"Gwangju Metro Line 2","name:ja":"光州都市鉄道2号線","name:ko":"광주 도시철도 2호선","name:ko-Hani":"光州 都市鐵道 2號線","name:zh":"光州都市鐵道2號線","name:zh-Hans":"光州都市铁道2号线","name:zh-Hant":"光州都市鐵道2號線","opening_date":2024,"railway":"construction","railway:cbtc":"RF","rubber_tires":"yes","tunnel":"yes","voltage":750},"geometry":{"coordinates":[[126.8337955,35.1783782],[126.8345649,35.1781828],[126.8349153,35.1781052],[126.8353327,35.1780119],[126.8362351,35.1778014],[126.8363579,35.1777715],[126.8369059,35.1776379],[126.8372423,35.1775646],[126.8447507,35.1758022],[126.8473396,35.175218],[126.8476636,35.1751131],[126.8479105,35.1749659],[126.8480484,35.1748039],[126.8481625,35.1746478]],"type":"LineString"}},{"type":"Feature","properties":{"@id":"node/436868819","light_rail":"yes","name":"삼각","name:en":"Samgak","name:ja":"Samgak","name:ko":"삼각","public_transport":"stop_position","railway":"construction"},"geometry":{"coordinates":[126.8998498,35.1948234],"type":"Point"}},{"type":"Feature","properties":{"@id":"node/5359291129","construction:railway":"stop","light_rail":"yes","name":"지스트","name:en":"GIST","name:ja":"ジスト(光州科学技術院)","name:ko":"지스트","name:zh":"光州科学技术院驛","public_transport":"stop_position","railway":"construction","ref":231},"geometry":{"coordinates":[126.8487828,35.2177055],"type":"Point"}},{"type":"Feature","properties":{"@id":"node/5359291128","construction:railway":"stop","light_rail":"yes","name":"첨단사거리","name:en":"Cheomdan sa(4)-geori","name:ja":"チョムダン","name:ko":"첨단사거리","public_transport":"stop_position","railway":"construction","ref":232},"geometry":{"coordinates":[126.841972,35.2177419],"type":"Point"}},{"type":"Feature","properties":{"@id":"node/5359291127","construction:railway":"stop","light_rail":"yes","name":"응암공원","name:en":"Eungam Park","name:ja":"ンアムゴンウォン(鷹岩公園)","name:ko":"응암공원","public_transport":"stop_position","railway":"construction","ref":233},"geometry":{"coordinates":[126.8338429,35.2159602],"type":"Point"}},{"type":"Feature","properties":{"@id":"node/5361247717","construction:railway":"stop","light_rail":"yes","name":"하남산단","name:en":"Hanam Industrial Complex","name:ja":"ハナムサンダン（河南産団)","name:ko":"하남산단","public_transport":"stop_position","railway":"construction","ref":234},"geometry":{"coordinates":[126.8195496,35.2022626],"type":"Point"}},{"type":"Feature","properties":{"@id":"node/5361247718","construction:railway":"stop","light_rail":"yes","name":"수완","name:en":"Suwan","name:ko":"수완","public_transport":"stop_position","railway":"construction","ref":235},"geometry":{"coordinates":[126.8237667,35.1906894],"type":"Point"}},{"type":"Feature","properties":{"@id":"node/5361247719","construction:railway":"stop","light_rail":"yes","name":"운남","name:en":"Unnam","name:ja":"ウンナム（雲南)","name:ko":"운남","public_transport":"stop_position","railway":"construction","ref":236},"geometry":{"coordinates":[126.8177041,35.1801043],"type":"Point"}},{"type":"Feature","properties":{"@id":"node/5361247720","construction:railway":"stop","light_rail":"yes","name":"신가","name:en":"Singa","name:ja":"シンガ(新街)","name:ko":"신가","public_transport":"stop_position","railway":"construction","ref":237},"geometry":{"coordinates":[126.8249939,35.1790352],"type":"Point"}},{"type":"Feature","properties":{"@id":"node/6253309709","construction:railway":"station","light_rail":"yes","name":"유덕","name:en":"Yudeok","name:ko":"유덕","public_transport":"station","ref":238,"station":"light_rail"},"geometry":{"coordinates":[126.848262,35.1682273],"type":"Point"}},{"type":"Feature","properties":{"@id":"node/5553610058","construction:railway":"stop","light_rail":"yes","name":"시청","name:en":"City Hall","name:ja":"シチョン(市庁)","name:ko":"시청","public_transport":"stop_position","railway":"construction","ref":201},"geometry":{"coordinates":[126.8482283,35.1584128],"type":"Point"}},{"type":"Feature","properties":{"@id":"node/7199670941","construction:railway":"stop","light_rail":"yes","name":"치평","name:en":"Chipyeong","name:ja":"チピョン","name:ko":"치평","public_transport":"stop_position","railway":"construction","ref":202},"geometry":{"coordinates":[126.8482733,35.1522064],"type":"Point"}},{"type":"Feature","properties":{"@id":"node/5553610071","construction:railway":"stop","light_rail":"yes","name":"금호","name:en":"Geumho","name:ja":"クムホ","name:ko":"금호","public_transport":"stop_position","railway":"construction","ref":204},"geometry":{"coordinates":[126.8571646,35.1443501],"type":"Point"}},{"type":"Feature","properties":{"@id":"node/5553610078","construction:railway":"stop","light_rail":"yes","name":"풍암","name:en":"Pungam","name:ja":"プンアム","name:ko":"풍암","public_transport":"stop_position","railway":"construction","ref":208},"geometry":{"coordinates":[126.8759628,35.1267982],"type":"Point"}},{"type":"Feature","properties":{"@id":"node/6250904807","light_rail":"yes","name":"백운(남구청)","name:en":"Baegun(Nam-gu Office)","name:ja":"ペグン","name:ko":"백운(남구청)","public_transport":"stop_position","railway":"construction"},"geometry":{"coordinates":[126.9015768,35.1332425],"type":"Point"}},{"type":"Feature","properties":{"@id":"node/5553610082","construction:railway":"station","light_rail":"yes","name":"양림","name:en":"Yangnim","name:ja":"ヤンニム","name:ko":"양림","public_transport":"stop_position","railway":"construction","ref":212},"geometry":{"coordinates":[126.9111294,35.1340691],"type":"Point"}},{"type":"Feature","properties":{"@id":"node/5553610083","construction":"station","construction:railway":"stop","light_rail":"yes","name":"방림","name:en":"Bangnim","name:ja":"パンニム","name:ko":"방림","public_transport":"stop_position","railway":"construction","ref":213},"geometry":{"coordinates":[126.9181142,35.1357034],"type":"Point"}},{"type":"Feature","properties":{"@id":"node/5553610084","construction:railway":"station","light_rail":"yes","name":"조선대","name:en":"Chosun Univ.","name:ja":"朝鮮大(チョソンデ)","name:ko":"조선대","public_transport":"stop_position","railway":"construction","ref":215},"geometry":{"coordinates":[126.9260433,35.1444102],"type":"Point"}},{"type":"Feature","properties":{"@id":"node/5553610085","construction:railway":"station","light_rail":"yes","name":"지산(법원·검찰청)","name:en":"Jisan (Court & Public Prosecutor's Office)","name:ja":"ジサン(法院·検察庁)","name:ko":"지산(법원·검찰청)","public_transport":"stop_position","railway":"construction","ref":216},"geometry":{"coordinates":[126.9292211,35.1492446],"type":"Point"}},{"type":"Feature","properties":{"@id":"node/5553610088","construction:railway":"stop","light_rail":"yes","name":"두암","name:en":"Duam","name:ja":"トゥアム","name:ko":"두암","public_transport":"stop_position","railway":"construction","ref":217},"geometry":{"coordinates":[126.9310218,35.1592748],"type":"Point"}},{"type":"Feature","properties":{"@id":"node/5553610089","construction:railway":"stop","light_rail":"yes","name":"서방사거리(교대)","name:en":"Seobangsageori (Gwangju Nat'l Univ.of Edu.)","name:ja":"ソバンサゴリ","name:ko":"서방사거리(교대)","public_transport":"stop_position","railway":"construction","ref":218},"geometry":{"coordinates":[126.9195878,35.164765],"type":"Point"}},{"type":"Feature","properties":{"@id":"node/5553610090","construction:railway":"stop","light_rail":"yes","name":"광주","name:en":"Gwangju","name:ja":"クァンジュ(光州)","name:ko":"광주","name:zh":"光州","public_transport":"stop_position","railway":"construction","ref":219},"geometry":{"coordinates":[126.9115323,35.1667939],"type":"Point"}},{"type":"Feature","properties":{"@id":"node/6250904811","light_rail":"yes","name":"매곡","name:en":"Maegok","name:ko":"매곡","public_transport":"stop_position","railway":"construction","ref":223},"geometry":{"coordinates":[126.8991466,35.1894671],"type":"Point"}},{"type":"Feature","properties":{"@id":"node/6250904813","light_rail":"yes","name":"일곡","name:en":"Ilgok","name:ja":"イルゴク","name:ko":"일곡","public_transport":"stop_position","railway":"construction","ref":225},"geometry":{"coordinates":[126.8978346,35.2025715],"type":"Point"}},{"type":"Feature","properties":{"@id":"node/6250904814","light_rail":"yes","name":"본촌산단","name:en":"Bonchon Industrial Complex","name:ja":"ポンチョンサンダン","name:ko":"본촌산단","public_transport":"stop_position","railway":"construction","ref":226},"geometry":{"coordinates":[126.8848319,35.1980214],"type":"Point"}},{"type":"Feature","properties":{"@id":"node/6250904817","light_rail":"yes","name":"양산공원","name:en":"Yangsan Park","name:ja":"ヤンサンゴンウォン","name:ko":"양산공원","public_transport":"stop_position","railway":"construction","ref":227},"geometry":{"coordinates":[126.8740197,35.2023154],"type":"Point"}},{"type":"Feature","properties":{"@id":"node/6250904821","light_rail":"yes","name":"양산","name:en":"Yangsan","name:ja":"ヤンサン","name:ko":"양산","public_transport":"stop_position","railway":"construction","ref":228},"geometry":{"coordinates":[126.873435,35.2064274],"type":"Point"}},{"type":"Feature","properties":{"@id":"node/6250904822","light_rail":"yes","name":"용두","name:en":"Yongdu","name:ja":"Yongdu","name:ko":"용두","public_transport":"stop_position","railway":"construction","ref":229},"geometry":{"coordinates":[126.8731452,35.211645],"type":"Point"}},{"type":"Feature","properties":{"@id":"node/6250904823","light_rail":"yes","name":"신용","name:en":"Sinyong","name:ja":"シニョン","name:ko":"신용","public_transport":"stop_position","railway":"construction","ref":230},"geometry":{"coordinates":[126.8633425,35.2147894],"type":"Point"}},{"type":"Feature","properties":{"@id":"node/6250904809","construction:railway":"stop","light_rail":"yes","name":"전남대(북구청)","name:en":"Chonnam Nat'l Univ. (Buk-gu office)","name:ja":"チョンナムデ(全南大学)","name:ko":"전남대(북구청)","name:zh":"全南大学","public_transport":"stop_position","railway":"construction"},"geometry":{"coordinates":[126.9126683,35.1737727],"type":"Point"}},{"type":"Feature","properties":{"@id":"node/5271343319","light_rail":"yes","name":"용봉","name:en":"Yongbong","name:ja":"ヨンボン","name:ko":"용봉","public_transport":"stop_position","railway":"construction","ref":221},"geometry":{"coordinates":[126.9119853,35.1804982],"type":"Point"}},{"type":"Feature","properties":{"@id":"node/6250904810","light_rail":"yes","name":"오치","name:en":"Ochi","name:ja":"ヤンニム","name:ko":"오치","public_transport":"stop_position","railway":"construction","ref":222},"geometry":{"coordinates":[126.9014418,35.1844951],"type":"Point"}},{"type":"Feature","properties":{"@id":"node/13509361655","light_rail":"yes","name":"삼각","name:en":"Samgak","name:ja":"Samgak","name:ko":"삼각","public_transport":"stop_position","railway":"construction"},"geometry":{"coordinates":[126.8997433,35.1948227],"type":"Point"}},{"type":"Feature","properties":{"@id":"node/13509361678","light_rail":"yes","name":"매곡","name:en":"Maegok","name:ko":"매곡","public_transport":"stop_position","railway":"construction","ref":223},"geometry":{"coordinates":[126.8990669,35.1894116],"type":"Point"}},{"type":"Feature","properties":{"@id":"node/13509361980","construction:railway":"stop","light_rail":"yes","name":"지스트","name:en":"GIST","name:ja":"ジスト(光州科学技術院)","name:ko":"지스트","name:zh":"光州科学技术院驛","public_transport":"stop_position","railway":"construction","ref":231},"geometry":{"coordinates":[126.848789,35.2176391],"type":"Point"}},{"type":"Feature","properties":{"@id":"node/13509361979","construction:railway":"stop","light_rail":"yes","name":"첨단사거리","name:en":"Cheomdan sa(4)-geori","name:ja":"チョムダン","name:ko":"첨단사거리","public_transport":"stop_position","railway":"construction","ref":232},"geometry":{"coordinates":[126.8419782,35.2176755],"type":"Point"}},{"type":"Feature","properties":{"@id":"node/13509361952","construction:railway":"stop","light_rail":"yes","name":"하남산단","name:en":"Hanam Industrial Complex","name:ja":"ハナムサンダン（河南産団)","name:ko":"하남산단","public_transport":"stop_position","railway":"construction","ref":234},"geometry":{"coordinates":[126.8196228,35.2022685],"type":"Point"}},{"type":"Feature","properties":{"@id":"node/13509361938","construction:railway":"stop","light_rail":"yes","name":"수완","name:en":"Suwan","name:ko":"수완","public_transport":"stop_position","railway":"construction","ref":235},"geometry":{"coordinates":[126.8238426,35.1906514],"type":"Point"}},{"type":"Feature","properties":{"@id":"node/13509361922","construction:railway":"stop","light_rail":"yes","name":"운남","name:en":"Unnam","name:ja":"ウンナム（雲南)","name:ko":"운남","public_transport":"stop_position","railway":"construction","ref":236},"geometry":{"coordinates":[126.8177693,35.180108],"type":"Point"}},{"type":"Feature","properties":{"@id":"node/13509361914","construction:railway":"stop","light_rail":"yes","name":"신가","name:en":"Singa","name:ja":"シンガ(新街)","name:ko":"신가","public_transport":"stop_position","railway":"construction","ref":237},"geometry":{"coordinates":[126.8250028,35.1790827],"type":"Point"}},{"type":"Feature","properties":{"@id":"node/13509361639","light_rail":"yes","name":"일곡","name:en":"Ilgok","name:ja":"イルゴク","name:ko":"일곡","public_transport":"stop_position","railway":"construction","ref":225},"geometry":{"coordinates":[126.8978407,35.2025423],"type":"Point"}},{"type":"Feature","properties":{"@id":"node/13509361633","light_rail":"yes","name":"본촌산단","name:en":"Bonchon Industrial Complex","name:ja":"ポンチョンサンダン","name:ko":"본촌산단","public_transport":"stop_position","railway":"construction","ref":226},"geometry":{"coordinates":[126.8848487,35.1979571],"type":"Point"}},{"type":"Feature","properties":{"@id":"node/13509361621","light_rail":"yes","name":"양산공원","name:en":"Yangsan Park","name:ja":"ヤンサンゴンウォン","name:ko":"양산공원","public_transport":"stop_position","railway":"construction","ref":227},"geometry":{"coordinates":[126.87394,35.2022599],"type":"Point"}},{"type":"Feature","properties":{"@id":"node/13509361612","light_rail":"yes","name":"양산","name:en":"Yangsan","name:ja":"ヤンサン","name:ko":"양산","public_transport":"stop_position","railway":"construction","ref":228},"geometry":{"coordinates":[126.8733553,35.2063719],"type":"Point"}},{"type":"Feature","properties":{"@id":"node/13509361605","light_rail":"yes","name":"용두","name:en":"Yongdu","name:ja":"Yongdu","name:ko":"용두","public_transport":"stop_position","railway":"construction","ref":229},"geometry":{"coordinates":[126.8731245,35.2116049],"type":"Point"}},{"type":"Feature","properties":{"@id":"node/13509361602","light_rail":"yes","name":"신용","name:en":"Sinyong","name:ja":"シニョン","name:ko":"신용","public_transport":"stop_position","railway":"construction","ref":230},"geometry":{"coordinates":[126.8633138,35.2147273],"type":"Point"}},{"type":"Feature","properties":{"@id":"node/13509361841","construction:railway":"station","light_rail":"yes","name":"유덕","name:en":"Yudeok","name:ko":"유덕","public_transport":"station","ref":238,"station":"light_rail"},"geometry":{"coordinates":[126.848354,35.1682375],"type":"Point"}},{"type":"Feature","properties":{"@id":"node/13509361832","construction:railway":"stop","light_rail":"yes","name":"시청","name:en":"City Hall","name:ja":"シチョン(市庁)","name:ko":"시청","public_transport":"stop_position","railway":"construction","ref":201},"geometry":{"coordinates":[126.8482854,35.1584165],"type":"Point"}},{"type":"Feature","properties":{"@id":"node/13509361831","construction:railway":"stop","light_rail":"yes","name":"치평","name:en":"Chipyeong","name:ja":"チピョン","name:ko":"치평","public_transport":"stop_position","railway":"construction","ref":202},"geometry":{"coordinates":[126.8483331,35.1522123],"type":"Point"}},{"type":"Feature","properties":{"@id":"node/13509361810","construction:railway":"stop","light_rail":"yes","name":"금호","name:en":"Geumho","name:ja":"クムホ","name:ko":"금호","public_transport":"stop_position","railway":"construction","ref":204},"geometry":{"coordinates":[126.8572351,35.1443471],"type":"Point"}},{"type":"Feature","properties":{"@id":"node/13509361785","construction:railway":"stop","light_rail":"yes","name":"풍암","name:en":"Pungam","name:ja":"プンアム","name:ko":"풍암","public_transport":"stop_position","railway":"construction","ref":208},"geometry":{"coordinates":[126.8759622,35.12686],"type":"Point"}},{"type":"Feature","properties":{"@id":"node/13509361772","construction:railway":"stop","light_rail":"yes","name":"원광대병원","name:en":"Wonkwang Univ. Hospital","name:ja":"ウォングァンデビョンウォン","name:ko":"원광대병원","public_transport":"stop_position","railway":"construction","ref":209},"geometry":{"coordinates":[126.8863976,35.1301706],"type":"Point"}},{"type":"Feature","properties":{"@id":"node/13509361756","light_rail":"yes","name":"백운(남구청)","name:en":"Baegun(Nam-gu Office)","name:ja":"ペグン","name:ko":"백운(남구청)","public_transport":"stop_position","railway":"construction"},"geometry":{"coordinates":[126.9015561,35.1333449],"type":"Point"}},{"type":"Feature","properties":{"@id":"node/13509361745","construction:railway":"station","light_rail":"yes","name":"양림","name:en":"Yangnim","name:ja":"ヤンニム","name:ko":"양림","public_transport":"stop_position","railway":"construction","ref":212},"geometry":{"coordinates":[126.9111248,35.1341035],"type":"Point"}},{"type":"Feature","properties":{"@id":"node/13509361736","construction":"station","construction:railway":"stop","light_rail":"yes","name":"방림","name:en":"Bangnim","name:ja":"パンニム","name:ko":"방림","public_transport":"stop_position","railway":"construction","ref":213},"geometry":{"coordinates":[126.9180828,35.135751],"type":"Point"}},{"type":"Feature","properties":{"@id":"node/13509361710","construction:railway":"station","light_rail":"yes","name":"조선대","name:en":"Chosun Univ.","name:ja":"朝鮮大(チョソンデ)","name:ko":"조선대","public_transport":"stop_position","railway":"construction","ref":215},"geometry":{"coordinates":[126.9259878,35.1444336],"type":"Point"}},{"type":"Feature","properties":{"@id":"node/13509361707","construction:railway":"station","light_rail":"yes","name":"지산(법원·검찰청)","name:en":"Jisan (Court & Public Prosecutor's Office)","name:ja":"ジサン(法院·検察庁)","name:ko":"지산(법원·검찰청)","public_transport":"stop_position","railway":"construction","ref":216},"geometry":{"coordinates":[126.9291602,35.1492746],"type":"Point"}},{"type":"Feature","properties":{"@id":"node/13509361700","construction:railway":"stop","light_rail":"yes","name":"두암","name:en":"Duam","name:ja":"トゥアム","name:ko":"두암","public_transport":"stop_position","railway":"construction","ref":217},"geometry":{"coordinates":[126.9309636,35.1592675],"type":"Point"}},{"type":"Feature","properties":{"@id":"node/13509361687","construction:railway":"stop","light_rail":"yes","name":"서방사거리(교대)","name:en":"Seobangsageori (Gwangju Nat'l Univ.of Edu.)","name:ja":"ソバンサゴリ","name:ko":"서방사거리(교대)","public_transport":"stop_position","railway":"construction","ref":218},"geometry":{"coordinates":[126.9195752,35.1647205],"type":"Point"}},{"type":"Feature","properties":{"@id":"node/13509361684","construction:railway":"stop","light_rail":"yes","name":"광주","name:en":"Gwangju","name:ja":"クァンジュ(光州)","name:ko":"광주","name:zh":"光州","public_transport":"stop_position","railway":"construction","ref":219},"geometry":{"coordinates":[126.9115224,35.1667472],"type":"Point"}},{"type":"Feature","properties":{"@id":"node/13509361885","construction:railway":"stop","light_rail":"yes","name":"전남대(북구청)","name:en":"Chonnam Nat'l Univ. (Buk-gu office)","name:ja":"チョンナムデ(全南大学)","name:ko":"전남대(북구청)","name:zh":"全南大学","public_transport":"stop_position","railway":"construction"},"geometry":{"coordinates":[126.9125913,35.1737347],"type":"Point"}},{"type":"Feature","properties":{"@id":"node/13509361873","light_rail":"yes","name":"용봉","name:en":"Yongbong","name:ja":"ヨンボン","name:ko":"용봉","public_transport":"stop_position","railway":"construction","ref":221},"geometry":{"coordinates":[126.9119164,35.1804778],"type":"Point"}},{"type":"Feature","properties":{"@id":"node/13509361854","light_rail":"yes","name":"오치","name:en":"Ochi","name:ja":"ヤンニム","name:ko":"오치","public_transport":"stop_position","railway":"construction","ref":222},"geometry":{"coordinates":[126.9014346,35.1844352],"type":"Point"}},{"type":"Feature","properties":{"@id":"node/5277694777","addr:housenumber":870,"addr:street":"평동로","name":"평동","name:en":"Pyeongdong","name:ja":"ピョンドン(平洞)","name:ko":"평동","public_transport":"station","railway":"station","station":"subway","subway":"yes","wikidata":"Q1583223","wikipedia":"ko:평동역"},"geometry":{"coordinates":[126.7695968,35.1248086],"type":"Point"}},{"type":"Feature","properties":{"@id":"node/5553610080","construction:railway":"station","light_rail":"yes","name":"주월","name:en":"Juwol","name:ja":"チュウォル","name:ko":"주월","public_transport":"stop_position","railway":"construction","ref":210},"geometry":{"coordinates":[126.8964958,35.1340308],"type":"Point"}},{"type":"Feature","properties":{"@id":"node/6356359134","construction:railway":"station","light_rail":"yes","name":"금부","name:en":"Geumbu","name:ja":"クムプ","name:ko":"금부","public_transport":"station","railway":"construction","ref":205,"station":"light_rail"},"geometry":{"coordinates":[126.8589861,35.1376002],"type":"Point"}},{"type":"Feature","properties":{"@id":"node/6356359136","construction:railway":"station","light_rail":"yes","name":"월드컵경기장","name:en":"World Cup Stadium","name:ja":"ワールドカップキョンギジャン","name:ko":"월드컵경기장","name:zh":"世界杯体育场","public_transport":"station","railway":"construction","ref":207,"station":"light_rail"},"geometry":{"coordinates":[126.8730813,35.1323967],"type":"Point"}},{"type":"Feature","properties":{"@id":"node/6356359139","construction:railway":"station","light_rail":"yes","name":"주월","name:en":"Juwol","name:ja":"チュウォル","name:ko":"주월","public_transport":"station","railway":"construction","ref":210,"station":"light_rail"},"geometry":{"coordinates":[126.8964609,35.1340711],"type":"Point"}},{"type":"Feature","properties":{"@id":"node/8277380186","addr:city":"광주광역시","addr:district":"광산구","addr:housenumber":"125-99","addr:street":"상무대로","name":"도산","name:en":"Dosan","name:ja":"ドサン(道山)","name:ko":"도산","name:ko-Latn":"Dosanyeok","name:zh":"道山","phone":"+82 062-233-9168","public_transport":"station","railway":"station","ref":118,"station":"subway","subway":"yes","wikidata":"Q1583193","wikipedia":"ko:도산역"},"geometry":{"coordinates":[126.787266,35.1313781],"type":"Point"}},{"type":"Feature","properties":{"@id":"node/8298442813","addr:housenumber":1,"addr:street":"제봉로","name":"남광주","name:en":"Namgwangju","name:ja":"ナムグァンジュ(南光州)","name:ko":"남광주","name:ko-Latn":"Namgwangjuyeok","name:zh":"南光州","public_transport":"station","railway":"station","ref":"103/214","station":"subway","subway":"yes","wikidata":"Q624382","wikipedia":"ko:남광주역"},"geometry":{"coordinates":[126.92284402184603,35.13938313517063],"type":"Point"}},{"type":"Feature","properties":{"@id":"node/8308335240","addr:city":"광주광역시","addr:district":"광산구","addr:housenumber":"201-99","addr:street":"상무대로","description":"도시철도 광주송정역 광주송정\"역\" 이름 기입 금지.","name":"광주송정","name:en":"Gwangju Songjeong","name:ja":"光州松汀(クヮンジュソンジョン)","name:ko":"광주송정","name:ko-Latn":"Songjeongri","name:zh":"光州松汀站","old_name:en":"Songjeongri Station","phone":"+82 062-233-9167","public_transport":"station","railway":"station","ref":117,"station":"subway","subway":"yes","wikidata":"Q1583211","wikipedia":"ko:광주송정역 (도시철도)"},"geometry":{"coordinates":[126.791568,35.1375544],"type":"Point"}},{"type":"Feature","properties":{"@id":"node/9252650042","addr:housenumber":"314-99","addr:street":"상무대로","name":"송정공원","name:en":"Songjeong Park","name:ja":"松汀公園(ソンジョンこうえん)","name:ko":"송정공원","name:ko-Latn":"Songjeonggongwonyeok","name:zh":"松汀公园","phone":"+82 062-233-9166","public_transport":"station","railway":"station","ref":116,"station":"subway","subway":"yes","wikidata":"Q1583203","wikipedia":"ko:송정공원역"},"geometry":{"coordinates":[126.799536,35.1435714],"type":"Point"}},{"type":"Feature","properties":{"@id":"node/9252650044","addr:city":"광주광역시","addr:district":"광산구","addr:housenumber":"416-99","addr:street":"상무대로","name":"공항","name:en":"Airport","name:ja":"くうこう","name:ko":"공항","name:ko-Latn":"Gonghangyeok","name:zh":"机场","phone":"+82 062-233-9165","public_transport":"station","railway":"station","ref":115,"station":"subway","subway":"yes","wikidata":"Q1583121","wikipedia":"ko:공항역 (광주)"},"geometry":{"coordinates":[126.8117129,35.144104],"type":"Point"}},{"type":"Feature","properties":{"@id":"node/9252650046","addr:housenumber":705,"addr:postcode":61960,"addr:street":"상무대로","name":"김대중컨벤션센터","name:en":"Kimdaejung Convention Center","name:ja":"金大中コンベンションセンター","name:ko":"김대중컨벤션센터","name:ko-Latn":"Gimdaejungkeonbensyeonsenteoyeok","name:zh":"金大中会展中心 （马勒）","phone":"+82 62-233-9164","public_transport":"station","railway":"station","ref":114,"station":"subway","subway":"yes","wikidata":"Q1583283","wikipedia":"ko:김대중컨벤션센터역"},"geometry":{"coordinates":[126.841324,35.1431981],"type":"Point"}},{"type":"Feature","properties":{"@id":"node/9252650049","addr:housenumber":883,"addr:street":"상무대로","name":"운천","name:en":"Uncheon","name:ja":"ウンチョン(雲泉)","name:ko":"운천","name:ko-Latn":"Uncheonyeok","name:zh":"云泉","phone":"+82 062-233-9162","public_transport":"station","railway":"station","ref":112,"station":"subway","subway":"yes","wheelchair":"yes","wikidata":"Q1583331"},"geometry":{"coordinates":[126.8586977,35.1504006],"type":"Point"}},{"type":"Feature","properties":{"@id":"node/9252650051","addr:city":"광주광역시","addr:district":"서구","addr:housenumber":883,"addr:street":"상무대로","name":"쌍촌","name:en":"Ssangchon","name:ja":"サンチョン(双村)","name:ko":"쌍촌","name:zh":"双村","public_transport":"station","railway":"station","ref":111,"station":"subway","subway":"yes","wheelchair":"yes","wikidata":"Q1583320","wikipedia":"ko:쌍촌역"},"geometry":{"coordinates":[126.8695709,35.1514904],"type":"Point"}},{"type":"Feature","properties":{"@id":"node/9252650053","addr:city":"광주광역시","addr:district":"서구","addr:housenumber":1041,"addr:street":"상무대로","name":"화정","name:en":"Hwajeong","name:ja":"ファジョン(花亭)","name:ko":"화정","name:ko-Latn":"Hwajeongyeok","name:zh":"花亭","public_transport":"station","railway":"station","ref":110,"station":"subway","subway":"yes","wheelchair":"yes","wikidata":"Q1583340","wikipedia":"ko:화정역 (광주)"},"geometry":{"coordinates":[126.8767655,35.1519029],"type":"Point"}},{"type":"Feature","properties":{"@id":"node/9252650055","addr:city":"광주광역시","addr:housenumber":1123,"addr:street":"상무대로","name":"농성","name:en":"Nongseong","name:ja":"ノンソン(農城)","name:ko":"농성","name:zh":"农城","public_transport":"station","railway":"station","ref":109,"station":"subway","subway":"yes","wheelchair":"yes","wikidata":"Q1583292","wikipedia":"ko:농성역"},"geometry":{"coordinates":[126.8840429,35.1532154],"type":"Point"}},{"type":"Feature","properties":{"@id":"node/9252650057","addr:city":"광주광역시","addr:district":"남구","addr:housenumber":87,"addr:street":"경열로","name":"돌고개","name:en":"Dolgogae","name:ja":"ドルコゲ","name:ko":"돌고개","name:zh":"石脊","public_transport":"station","railway":"station","ref":108,"station":"subway","subway":"yes","wheelchair":"yes","wikidata":"Q1583303","wikipedia":"ko:돌고개역"},"geometry":{"coordinates":[126.8955645,35.1517154],"type":"Point"}},{"type":"Feature","properties":{"@id":"node/9252650068","addr:housenumber":700,"addr:street":"남문로","name":"학동·증심사입구","name:en":"Hakdong·Jeungsimsa","name:ja":"鶴洞･証心寺入口","name:ja-Hira":"はくとん・ちゅんしむさ いりぐち","name:ko":"학동·증심사입구","name:ko-Latn":"Hakdongjungsimsaipguyeok","name:zh":"鹤洞·证心寺入口","public_transport":"station","railway":"station","station":"subway","subway":"yes","wikidata":"Q626197","wikipedia":"ja:鶴洞・証心寺入口駅"},"geometry":{"coordinates":[126.9281659,35.1331095],"type":"Point"}},{"type":"Feature","properties":{"@id":"node/9252650070","addr:housenumber":587,"addr:street":"남문로","name":"소태","name:en":"Sotae","name:ja":"所台","name:ja-Hira":"そて","name:ko":"소태","name:ko-Latn":"Sotaeyeok","name:zh":"所台","public_transport":"station","railway":"station","ref":101,"station":"subway","subway":"yes","wikidata":"Q623953","wikipedia":"ja:所台駅"},"geometry":{"coordinates":[126.9322262,35.1236091],"type":"Point"}}]}